TDRS 3                  
1 19548U 88091B   23206.26762073 -.00000289  00000+0  00000+0 0  9997
2 19548  13.4151 348.2587 0033485 335.3876  26.5071  1.00270640114781
HST                     
1 20580U 90037B   23205.92764302  .00004829  00000+0  25212-3 0  9996
2 20580  28.4706  16.8313 0002908  67.1038  62.1782 15.13559894627180
TDRS 5                  
1 21639U 91054B   23206.59474333  .00000094  00000+0  00000+0 0  9992
2 21639  14.2010   1.5411 0024827   1.7479 346.3875  1.00279881117106
TDRS 6                  
1 22314U 93003B   23206.26823088 -.00000287  00000+0  00000+0 0  9993
2 22314  14.1511   4.8281 0012605 143.0715 205.5476  1.00271300111797
TDRS 7                  
1 23613U 95035B   23206.62695255 -.00000194  00000+0  00000+0 0  9993
2 23613  13.8175 355.5639 0028554  68.4831 189.6128  1.00274836102641
ISS (ZARYA)             
1 25544U 98067A   23206.28493277  .00013139  00000+0  23767-3 0  9999
2 25544  51.6396 139.7648 0000243  55.6182 304.4830 15.50013867407690
LANDSAT 7               
1 25682U 99020A   23206.59926701  .00000502  00000+0  11344-3 0  9997
2 25682  97.9269 243.2684 0001165  88.6175  62.7989 14.60163291291325
TERRA                   
1 25994U 99068A   23206.53254323  .00000571  00000+0  13036-3 0  9999
2 25994  98.0926 273.9683 0000941  11.6288  96.7347 14.59304651255256
TDRS 8                  
1 26388U 00034A   23199.05630139 -.00000239  00000+0  00000+0 0  9998
2 26388  10.9926  39.7733 0020904 352.9727  12.4966  1.00269270 84500
TIMED                   
1 26998U 01055B   23206.45565464  .00001479  00000+0  15769-3 0  9998
2 26998  74.0702 196.1337 0002671 292.9686  67.1214 14.89871557172998
TDRS 9                  
1 27389U 02011A   23206.44716907 -.00000256  00000+0  00000+0 0  9996
2 27389   9.8918  56.8226 0007160  75.8598 104.4890  0.98983740 79810
AQUA                    
1 27424U 02022A   23206.57766347  .00001052  00000+0  23826-3 0  9994
2 27424  98.2881 150.8643 0002127  71.9341  37.2257 14.58188521128911
TDRS 10                 
1 27566U 02055A   23206.59329694  .00000097  00000+0  00000+0 0  9992
2 27566   8.9447  47.5789 0007234   2.6144 295.5464  1.00264107 75629
SORCE                   
1 27651U 03004A   23206.12960432  .00003295  00000+0  33027-3 0  9994
2 27651  39.9937 125.7862 0018436  68.5713 291.7042 14.92226844113187
AURA                    
1 28376U 04026A   23206.55610625  .00001015  00000+0  23295-3 0  9991
2 28376  98.2111 149.7085 0001740  69.3310 290.8075 14.57596478 11939
SWIFT                   
1 28485U 04047A   23206.54097361  .00008120  00000+0  43871-3 0  9996
2 28485  20.5581 351.7237 0010388  28.6065 331.4939 15.11416738 24426
THEMIS A                
1 30580U 07004A   23206.61731285 -.00000115  00000+0 -51815-1 0  9992
2 30580  11.2044 297.2525 8324469 254.6560  22.7219  0.87833656 31986
THEMIS D                
1 30797U 07004D   23206.38253516 -.00000083  00000+0  00000+0 0  9993
2 30797   7.6452 285.4140 8281974 269.8000 295.1720  0.87833984 31774
THEMIS E                
1 30798U 07004E   23206.62382500 -.00000068  00000+0  00000+0 0  9990
2 30798   8.7707 304.5471 8285390 252.4311  29.5459  0.87831793 56624
AIM                     
1 31304U 07015A   23206.43681665  .00019858  00000+0  65677-3 0  9990
2 31304  97.8703 149.4941 0005355  73.0044 287.1782 15.31379740892537
FGRST (GLAST)           
1 33053U 08029A   23206.58988710  .00003261  00000+0  15707-3 0  9996
2 33053  25.5838 294.5182 0011439 176.0893 183.9733 15.14272865834820
WISE                    
1 36119U 09071A   23206.53743920  .00015445  00000+0  34881-3 0  9998
2 36119  97.1925 238.9330 0000353  68.9526 291.1760 15.43282021757430
TDRS 11                 
1 39070U 13004A   23206.59039763  .00000095  00000+0  00000+0 0  9994
2 39070   2.7005 359.4939 0006135  71.0473 270.6834  1.00276069 36082
TDRS 12                 
1 39504U 14004A   23206.41246337 -.00000254  00000+0  00000+0 0  9993
2 39504   3.6030 355.5271 0005728 162.8655 251.9308  1.00277882 33670
GPM-CORE                
1 39574U 14009C   23206.57791838  .00015348  00000+0  21428-3 0  9993
2 39574  64.9920 255.7142 0009814 265.5606  94.4420 15.57020873534337
MMS 1                   
1 40482U 15011A   23202.53794682 -.00001755  00000+0  00000+0 0  9996
2 40482  29.8935  56.8899 9166773 103.5222   4.8567  0.28558658 14445
MMS 2                   
1 40483U 15011B   23205.97481840 -.00001567  00000+0  00000+0 0  9998
2 40483  29.9170  56.6255 9170407 103.8310 358.3929  0.28578644 14516
MMS 3                   
1 40484U 15011C   23203.62542616 -.00001658  00000+0  00000+0 0  9999
2 40484  29.9066  56.7359 9166891 103.6827 116.6928  0.28579098 14181
MMS 4                   
1 40485U 15011D   23206.34061654 -.00001574  00000+0  00000+0 0  9997
2 40485  29.9192  56.5818 9170997 103.8909  35.9761  0.28578658 14409
TDRS 13                 
1 42915U 17047A   23206.27494257 -.00000083  00000+0  00000+0 0  9993
2 42915   3.9590 338.4500 0018911 121.3880 290.4295  1.00271982 21740
JPSS-1                  
1 43013U 17073A   23206.53677806  .00000081  00000+0  59086-4 0  9994
2 43013  98.7126 144.4039 0001344  65.1236 295.0080 14.19548110294414
